NORAD_CAT_ID,OBJECT_NAME,OBJECT_TYPE,EPOCH,MEAN_MOTION,ECCENTRICITY,INCLINATION,RA_OF_ASC_NODE,ARG_OF_PERICENTER,MEAN_ANOMALY,BSTAR,MEAN_MOTION_DOT,MEAN_MOTION_DDOT,TLE_LINE0,TLE_LINE1,TLE_LINE2,SEMIMAJOR_AXIS,PERIOD,APOGEE,PERIGEE,DECAYED
49739.0,STARLINK-3155,PAYLOAD,2024-08-02 19:40:04,15.08838369,0.0001173,53.2155,260.2193,83.2961,276.8165,0.00034246,5.166e-05,0.0,0 STARLINK-3155,1 49739U 21115R   24215.81950212  .00005166  00000-0  34246-3 0  9994,2 49739  53.2155 260.2193 0001173  83.2961 276.8165 15.08838369147243,6917.885,95.438,540.562,538.939,0.0
49739.0,STARLINK-3155,PAYLOAD,2024-08-03 11:33:56,15.088458,0.0001288,53.2156,257.2459,84.6031,275.5108,0.00026626,3.953e-05,0.0,0 STARLINK-3155,1 49739U 21115R   24216.48190093  .00003953  00000-0  26626-3 0  9996,2 49739  53.2156 257.2459 0001288  84.6031 275.5108 15.08845800147347,6917.863,95.437,540.619,538.837,0.0
49739.0,STARLINK-3155,PAYLOAD,2024-08-03 19:30:51,15.08853782,0.0001344,53.2153,255.759,89.124,270.9906,0.00054298,8.367e-05,0.0,0 STARLINK-3155,1 49739U 21115R   24216.81309715  .00008367  00000-0  54298-3 0  9996,2 49739  53.2153 255.7590 0001344  89.1240 270.9906 15.08853782148500,6917.838,95.437,540.633,538.774,0.0
49739.0,STARLINK-3155,PAYLOAD,2024-08-04 03:27:47,15.08841839,0.0001422,53.215,254.2723,88.186,271.9295,0.00018954,2.73e-05,0.0,0 STARLINK-3155,1 49739U 21115R   24217.14430198  .00002730  00000-0  18954-3 0  9990,2 49739  53.2150 254.2723 0001422  88.1860 271.9295 15.08841839148550,6917.875,95.437,540.723,538.756,0.0
49739.0,STARLINK-3155,PAYLOAD,2024-08-04 11:24:43,15.0884998,0.0001342,53.2148,252.7855,90.4935,269.6211,0.00035695,5.399e-05,0.0,0 STARLINK-3155,1 49739U 21115R   24217.47549909  .00005399  00000-0  35695-3 0  9992,2 49739  53.2148 252.7855 0001342  90.4935 269.6211 15.08849980147495,6917.85,95.437,540.643,538.787,0.0
49739.0,STARLINK-3155,PAYLOAD,2024-08-05 19:12:25,15.08853785,0.0001373,53.2137,246.8371,89.8145,270.3004,0.00030947,4.643e-05,0.0,0 STARLINK-3155,1 49739U 21115R   24218.80029156  .00004643  00000-0  30947-3 0  9993,2 49739  53.2137 246.8371 0001373  89.8145 270.3004 15.08853785147698,6917.838,95.437,540.653,538.753,0.0
49739.0,STARLINK-3155,PAYLOAD,2024-08-06 01:33:58,15.08840709,0.0002068,53.2135,245.6502,88.8167,271.3061,-2.0699e-05,-6.18e-06,0.0,0 STARLINK-3155,1 49739U 21115R   24219.06525700 -.00000618  00000-0 -20699-4 0  9992,2 49739  53.2135 245.6502 0002068  88.8167 271.3061 15.08840709148848,6917.878,95.438,541.174,538.313,0.0
49739.0,STARLINK-3155,PAYLOAD,2024-08-06 07:55:31,15.0882638,0.0001305,53.2135,244.4585,97.7959,262.3181,-0.00030917,-5.203e-05,0.0,0 STARLINK-3155,1 49739U 21115R   24219.33022004 -.00005203  00000-0 -30917-3 0  9999,2 49739  53.2135 244.4585 0001305  97.7959 262.3181 15.08826380148883,6917.922,95.438,540.69,538.884,0.0
49739.0,STARLINK-3155,PAYLOAD,2024-08-06 19:03:13,15.08829597,0.0001345,53.2137,242.3764,97.4956,262.6189,0.00012335,1.675e-05,0.0,0 STARLINK-3155,1 49739U 21115R   24219.79390451  .00001675  00000-0  12335-3 0  9994,2 49739  53.2137 242.3764 0001345  97.4956 262.6189 15.08829597147848,6917.912,95.438,540.708,538.847,0.0
49739.0,STARLINK-3155,PAYLOAD,2024-08-07 10:57:05,15.08842655,0.0001381,53.2137,239.4021,98.6384,261.4764,0.00083467,0.00013022,0.0,0 STARLINK-3155,1 49739U 21115R   24220.45630882  .00013022  00000-0  83467-3 0  9997,2 49739  53.2137 239.4021 0001381  98.6384 261.4764 15.08842655149050,6917.872,95.437,540.693,538.782,0.0
49739.0,STARLINK-3155,PAYLOAD,2024-08-08 06:01:42,15.08858203,0.0001402,53.2139,235.8331,97.8493,262.2658,0.00076761,0.00011956,0.0,0 STARLINK-3155,1 49739U 21115R   24221.25118403  .00011956  00000-0  76761-3 0  9999,2 49739  53.2139 235.8331 0001402  97.8493 262.2658 15.08858203148069,6917.825,95.436,540.66,538.72,0.0
49739.0,STARLINK-3155,PAYLOAD,2024-08-09 05:52:29,15.08844422,0.0001433,53.2156,231.3714,108.5947,251.5201,6.8629e-05,8.05e-06,0.0,0 STARLINK-3155,1 49739U 21115R   24222.24478112  .00000805  00000-0  68629-4 0  9991,2 49739  53.2156 231.3714 0001433 108.5947 251.5201 15.08844422149325,6917.867,95.437,540.723,538.741,0.0
49739.0,STARLINK-3155,PAYLOAD,2024-08-10 04:07:53,15.08841281,0.0001406,53.2149,227.2094,84.6261,275.4891,8.4306e-05,1.054e-05,0.0,0 STARLINK-3155,1 49739U 21115R   24223.17214431  .00001054  00000-0  84306-4 0  9993,2 49739  53.2149 227.2094 0001406  84.6261 275.4891 15.08841281149460,6917.876,95.437,540.714,538.769,0.0
49739.0,STARLINK-3155,PAYLOAD,2024-08-11 07:09:26,15.0884602,0.0001373,53.2149,222.1544,84.3947,275.7202,0.00024293,3.581e-05,0.0,0 STARLINK-3155,1 49739U 21115R   24224.29822200  .00003581  00000-0  24293-3 0  9991,2 49739  53.2149 222.1544 0001373  84.3947 275.7202 15.08846020149639,6917.862,95.437,540.677,538.777,0.0
49739.0,STARLINK-3155,PAYLOAD,2024-08-11 16:41:44,15.08860334,0.0001366,53.2152,220.3698,85.3025,274.8123,0.00046205,7.077e-05,0.0,0 STARLINK-3155,1 49739U 21115R   24224.69565510  .00007077  00000-0  46205-3 0  9994,2 49739  53.2152 220.3698 0001366  85.3025 274.8123 15.08860334149695,6917.818,95.436,540.628,538.738,0.0
49739.0,STARLINK-3155,PAYLOAD,2024-08-12 05:24:50,15.08839496,0.000164,53.2156,217.9908,99.2364,260.8814,4.1017e-06,-2.23e-06,0.0,0 STARLINK-3155,1 49739U 21115R   24225.22558093 -.00000223  00000-0  41017-5 0  9997,2 49739  53.2156 217.9908 0001640  99.2364 260.8814 15.08839496149776,6917.882,95.438,540.881,538.612,0.0
49739.0,STARLINK-3155,PAYLOAD,2024-08-12 08:35:36,15.08845899,0.0001623,53.2158,217.396,98.7418,261.3758,0.0001736,2.476e-05,0.0,0 STARLINK-3155,1 49739U 21115R   24225.35805833  .00002476  00000-0  17360-3 0  9991,2 49739  53.2158 217.3960 0001623  98.7418 261.3758 15.08845899148681,6917.862,95.437,540.85,538.605,0.0
49739.0,STARLINK-3155,PAYLOAD,2024-08-12 16:32:31,15.08865274,0.0001449,53.2151,215.9108,93.5399,266.5759,0.00062952,9.752e-05,0.0,0 STARLINK-3155,1 49739U 21115R   24225.68925195  .00009752  00000-0  62952-3 0  9992,2 49739  53.2151 215.9108 0001449  93.5399 266.5759 15.08865274149845,6917.803,95.436,540.671,538.666,0.0
49739.0,STARLINK-3155,PAYLOAD,2024-08-13 05:15:36,15.08845238,0.0001672,53.215,213.5301,95.4847,264.6336,0.00038434,5.835e-05,0.0,0 STARLINK-3155,1 49739U 21115R   24226.21917581  .00005835  00000-0  38434-3 0  9998,2 49739  53.2150 213.5301 0001672  95.4847 264.6336 15.08845238149927,6917.864,95.437,540.886,538.573,0.0
49739.0,STARLINK-3155,PAYLOAD,2024-08-13 16:23:18,15.08862672,0.0001557,53.2141,211.4427,85.1066,275.0104,0.00081535,0.0001272,0.0,0 STARLINK-3155,1 49739U 21115R   24226.68284952  .00012720  00000-0  81535-3 0  9999,2 49739  53.2141 211.4427 0001557  85.1066 275.0104 15.08862672149991,6917.811,95.436,540.753,538.599,0.0
49739.0,STARLINK-3155,PAYLOAD,2024-08-13 22:44:51,15.08828461,0.0001903,53.2147,210.261,84.1295,275.9914,-0.00035083,-5.866e-05,0.0,0 STARLINK-3155,1 49739U 21115R   24226.94781510 -.00005866  00000-0 -35083-3 0  9992,2 49739  53.2147 210.2610 0001903  84.1295 275.9914 15.08828461148924,6917.916,95.438,541.097,538.464,0.0
49739.0,STARLINK-3155,PAYLOAD,2024-08-14 05:06:24,15.08810398,0.000139,53.2142,209.07,82.4745,277.6405,0.0010098,0.00015807,0.0,0 STARLINK-3155,1 49739U 21115R   24227.21278232  .00015807  00000-0  10098-2 0  9997,2 49739  53.2142 209.0700 0001390  82.4745 277.6405 15.08810398150079,6917.971,95.439,540.797,538.874,0.0
49739.0,STARLINK-3155,PAYLOAD,2024-08-14 08:17:10,15.08809275,0.0001536,53.2144,208.4758,80.0499,280.0667,0.00090745,0.00014171,0.0,0 STARLINK-3155,1 49739U 21115R   24227.34526598  .00014171  00000-0  90745-3 0  9993,2 49739  53.2144 208.4758 0001536  80.0499 280.0667 15.08809275148986,6917.974,95.439,540.902,538.777,0.0
49739.0,STARLINK-3155,PAYLOAD,2024-08-14 16:14:07,15.08815621,0.0001455,53.2143,206.9884,85.382,274.7338,0.00063926,9.894e-05,0.0,0 STARLINK-3155,1 49739U 21115R   24227.67647111  .00009894  00000-0  63926-3 0  9991,2 49739  53.2143 206.9884 0001455  85.3820 274.7338 15.08815621149038,6917.955,95.439,540.826,538.813,0.0
49739.0,STARLINK-3155,PAYLOAD,2024-08-15 04:57:12,15.08831012,0.0001485,53.2144,204.6094,81.6393,278.4768,0.00082939,0.00012933,0.0,0 STARLINK-3155,1 49739U 21115R   24228.20639629  .00012933  00000-0  82939-3 0  9999,2 49739  53.2144 204.6094 0001485  81.6393 278.4768 15.08831012150227,6917.908,95.438,540.8,538.746,0.0
49739.0,STARLINK-3155,PAYLOAD,2024-08-16 04:47:59,15.08852669,0.0001476,53.2141,200.1487,81.2768,278.8392,0.00076833,0.00011965,0.0,0 STARLINK-3155,1 49739U 21115R   24229.19999494  .00011965  00000-0  76833-3 0  9997,2 49739  53.2141 200.1487 0001476  81.2768 278.8392 15.08852669149263,6917.842,95.437,540.728,538.686,0.0
49739.0,STARLINK-3155,PAYLOAD,2024-08-17 04:38:46,15.08841764,0.0001432,53.2148,195.6864,83.6849,276.4306,0.00010304,1.352e-05,0.0,0 STARLINK-3155,1 49739U 21115R   24230.19359413  .00001352  00000-0  10304-3 0  9990,2 49739  53.2148 195.6864 0001432  83.6849 276.4306 15.08841764150529,6917.875,95.437,540.731,538.749,0.0
49739.0,STARLINK-3155,PAYLOAD,2024-08-17 20:32:37,15.08843936,0.0001422,53.2148,192.7147,82.2419,277.8735,6.5024e-05,7.47e-06,0.0,0 STARLINK-3155,1 49739U 21115R   24230.85599242  .00000747  00000-0  65024-4 0  9996,2 49739  53.2148 192.7147 0001422  82.2419 277.8735 15.08843936149519,6917.868,95.437,540.717,538.75,0.0
49739.0,STARLINK-3155,PAYLOAD,2024-08-18 02:54:10,15.08842169,0.0001399,53.215,191.5242,82.485,277.6301,1.6523e-05,-2.5e-07,0.0,0 STARLINK-3155,1 49739U 21115R   24231.12095276 -.00000025  00000-0  16523-4 0  9995,2 49739  53.2150 191.5242 0001399  82.4850 277.6301 15.08842169149557,6917.874,95.437,540.707,538.771,0.0
49739.0,STARLINK-3155,PAYLOAD,2024-08-18 21:58:48,15.08837687,0.0001321,53.216,187.9561,94.1321,265.9822,9.6634e-05,1.25e-05,0.0,0 STARLINK-3155,1 49739U 21115R   24231.91583511  .00001250  00000-0  96634-4 0  9997,2 49739  53.2160 187.9561 0001321  94.1321 265.9822 15.08837687149679,6917.887,95.438,540.666,538.839,0.0
